ASTRA 1N                
1 37775U 11041A   26166.99241906  .00000120  00000+0  00000+0 0  9998
2 37775   0.0948  45.4331 0006015  49.6801 185.6220  1.00270870 44515
BSAT-3C (JCSAT-110R)    
1 37776U 11041B   26166.92664766 -.00000350  00000+0  00000+0 0  9991
2 37776   0.0182  14.1444 0000067 182.4365 151.1743  1.00270815 50453
PAKSAT-1R               
1 37779U 11042A   26166.83687013  .00000155  00000+0  00000+0 0  9997
2 37779   0.6859  84.6087 0003238 336.0514 182.7825  1.00265428 54464
SES-2                   
1 37809U 11049A   26166.81216395 -.00000194  00000+0  00000+0 0  9991
2 37809   0.0604 100.8945 0002609 342.9008  25.6743  1.00270499 53950
ARABSAT-5C              
1 37810U 11049B   26166.85739491  .00000124  00000+0  00000+0 0  9996
2 37810   0.0511  14.4909 0003423  87.9099 130.3835  1.00271156 54026
EUTELSAT 7 WEST A       
1 37816U 11051A   26166.80600451 -.00000059  00000+0  00000+0 0  9991
2 37816   0.0635  11.7515 0004027  84.5914  90.5806  1.00271208 53866
QUETZSAT 1              
1 37826U 11054A   26166.81415729 -.00000240  00000+0  00000+0 0  9990
2 37826   0.0209  36.1434 0002492  50.9486  33.1014  1.00270554 49862
INTELSAT 18 (IS-18)     
1 37834U 11056A   26166.79370387  .00000054  00000+0  00000+0 0  9990
2 37834   0.0119 303.7527 0001549 139.0292 287.0213  1.00271203 53793
EUTELSAT 16A            
1 37836U 11057A   26166.90385082  .00000105  00000+0  00000+0 0  9991
2 37836   0.0460  17.3355 0005989  70.5919 157.6442  1.00273807  7324
VIASAT-1                
1 37843U 11059A   26166.01642035 -.00000019  00000+0  00000+0 0  9992
2 37843   0.0175 336.5077 0002021 105.2509  72.3583  1.00271822 47303
ASIASAT 7               
1 37933U 11069A   26166.92150743 -.00000333  00000+0  00000+0 0  9992
2 37933   0.0295  76.0324 0001196 339.8010 285.6240  1.00272282 44847
BEIDOU-2 IGSO-5         
1 37948U 11073A   26166.77611045 -.00000167  00000+0  00000+0 0  9998
2 37948  47.6807 271.5633 0113929 221.6546 141.9816  1.00273002 53129
LUCH-5A                 
1 37951U 11074B   26166.50878299 -.00000054  00000+0  00000+0 0  9995
2 37951   8.7499  73.8320 0002162  22.2945 157.7802  1.00270016 53030
NIGCOMSAT 1R            
1 38014U 11077A   26166.99224168  .00000146  00000+0  00000+0 0  9993
2 38014   0.0438 121.7464 0002688 226.5511 315.6720  1.00268918 52943
WGS F4 (USA 233)        
1 38070U 12003A   26166.84685826  .00000000  00000+0  00000+0 0  9990
2 38070   0.0231  17.8509 0000809 269.1084  10.4443  1.00268688 44130
SES-4                   
1 38087U 12007A   26166.18340823 -.00000164  00000+0  00000+0 0  9996
2 38087   0.0226  29.0397 0002642  70.8671 207.5944  1.00270340 52208
BEIDOU-2 G5             
1 38091U 12008A   26166.69843536  .00000057  00000+0  00000+0 0  9997
2 38091   3.5693  69.7032 0009130 272.8023 231.5622  1.00271399 52351
MUOS-1                  
1 38093U 12009A   26166.66697817 -.00000129  00000+0  00000+0 0  9997
2 38093   5.4730  47.1561 0058647   1.7264 355.1786  1.00270192 52428
INTELSAT 22 (IS-22)     
1 38098U 12011A   26166.80973098 -.00000057  00000+0  00000+0 0  9999
2 38098   0.0193  61.9079 0001619  38.9402 166.8261  1.00272445  7178
APSTAR-7                
1 38107U 12013A   26167.02196684 -.00000101  00000+0  00000+0 0  9995
2 38107   0.0167  22.2487 0002548  71.4454 255.0058  1.00271646 51798
YAHSAT 1B               
1 38245U 12016A   26166.48234422  .00000129  00000+0  00000+0 0  9992
2 38245   0.0913  90.2233 0002359  12.4405  22.3367  1.00270415 45597
AEHF-2 (USA 235)        
1 38254U 12019A   26166.04166961 -.00000136  00000+0  00000+0 0  9998
2 38254   6.6459  57.5044 0002368  17.9364 186.3377  1.00269927  6960
JCSAT-13                
1 38331U 12023A   26166.85387829 -.00000355  00000+0  00000+0 0  9999
2 38331   0.0147  18.4107 0002877  92.6036 224.5105  1.00271216 51525
VINASAT-2               
1 38332U 12023B   26166.85543830 -.00000328  00000+0  00000+0 0  9996
2 38332   0.0180  18.2560 0002084  75.9187 249.7703  1.00271045 46645
NIMIQ 6                 
1 38342U 12026A   26166.45486498 -.00000171  00000+0  00000+0 0  9998
2 38342   0.0192 303.2482 0002435 140.4929 252.6453  1.00270368 50390
ZHONGXING-2A            
1 38352U 12028A   26166.92012076 -.00000293  00000+0  00000+0 0  9995
2 38352   1.4502  83.8892 0003754  45.9373 203.8601  1.00270638 51286
INTELSAT 19 (IS-19)     
1 38356U 12030A   26166.79093052 -.00000055  00000+0  00000+0 0  9996
2 38356   0.0163 356.0892 0002811  97.0106 261.6997  1.00270894 50438
ECHOSTAR 17             
1 38551U 12035A   26166.45165829  .00000000  00000+0  00000+0 0  9992
2 38551   0.0247  12.0514 0002146  73.4158 233.7706  1.00271238 51043
METEOSAT-10 (MSG-3)     
1 38552U 12035B   26166.90073081 -.00000006  00000+0  00000+0 0  9998
2 38552   4.6688  61.0268 0001452 328.0735 199.6782  1.00276584 50842
SES-5                   
1 38652U 12036A   26166.54522022  .00000036  00000+0  00000+0 0  9996
2 38652   0.0490 313.0468 0001784 131.8566  20.1824  1.00271492 44443
INTELSAT 20 (IS-20)     
1 38740U 12043A   26166.84289623 -.00000023  00000+0  00000+0 0  9999
2 38740   0.0027  62.9680 0001702 113.8302  99.2761  1.00270304 50738
HYLAS 2                 
1 38741U 12043B   26166.81502396 -.00000258  00000+0  00000+0 0  9992
2 38741   2.4240  81.0844 0002410  27.1359  16.7125  1.00269834 50769
