OBJECT_NAME,OBJECT_ID,EPOCH,MEAN_MOTION,ECCENTRICITY,INCLINATION,RA_OF_ASC_NODE,ARG_OF_PERICENTER,MEAN_ANOMALY,EPHEMERIS_TYPE,CLASSIFICATION_TYPE,NORAD_CAT_ID,ELEMENT_SET_NO,REV_AT_EPOCH,BSTAR,MEAN_MOTION_DOT,MEAN_MOTION_DDOT
ASTRA 1N,2011-041A,2026-06-15T23:49:05.006784,1.00270870,.00060157,0.0948,45.4331,49.6801,185.6220,0,U,37775,999,4451,0,.12E-5,0
BSAT-3C (JCSAT-110R),2011-041B,2026-06-15T22:14:22.357824,1.00270815,.0000067,0.0182,14.1444,182.4365,151.1743,0,U,37776,999,5045,0,-.35E-5,0
PAKSAT-1R,2011-042A,2026-06-15T20:05:05.579232,1.00265428,.00032388,0.6859,84.6087,336.0514,182.7825,0,U,37779,999,5446,0,.155E-5,0
SES-2,2011-049A,2026-06-15T19:29:30.965280,1.00270499,.00026095,0.0604,100.8945,342.9008,25.6743,0,U,37809,999,5395,0,-.194E-5,0
ARABSAT-5C,2011-049B,2026-06-15T20:34:38.920224,1.00271156,.00034237,0.0511,14.4909,87.9099,130.3835,0,U,37810,999,5402,0,.124E-5,0
EUTELSAT 7 WEST A,2011-051A,2026-06-15T19:20:38.789664,1.00271208,.00040277,0.0635,11.7515,84.5914,90.5806,0,U,37816,999,5386,0,-.59E-6,0
QUETZSAT 1,2011-054A,2026-06-15T19:32:23.189856,1.00270554,.0002492,0.0209,36.1434,50.9486,33.1014,0,U,37826,999,4986,0,-.24E-5,0
INTELSAT 18 (IS-18),2011-056A,2026-06-15T19:02:56.014368,1.00271203,.00015498,0.0119,303.7527,139.0292,287.0213,0,U,37834,999,5379,0,.54E-6,0
EUTELSAT 16A,2011-057A,2026-06-15T21:41:32.710848,1.00273807,.00059898,0.0460,17.3355,70.5919,157.6442,0,U,37836,999,732,0,.105E-5,0
VIASAT-1,2011-059A,2026-06-15T00:23:38.718240,1.00271822,.00020218,0.0175,336.5077,105.2509,72.3583,0,U,37843,999,4730,0,-.19E-6,0
ASIASAT 7,2011-069A,2026-06-15T22:06:58.241952,1.00272282,.0001196,0.0295,76.0324,339.8010,285.6240,0,U,37933,999,4484,0,-.333E-5,0
BEIDOU-2 IGSO-5,2011-073A,2026-06-15T18:37:35.942880,1.00273002,.01139292,47.6807,271.5633,221.6546,141.9816,0,U,37948,999,5312,0,-.167E-5,0
LUCH-5A,2011-074B,2026-06-15T12:12:38.850336,1.00270016,.00021627,8.7499,73.8320,22.2945,157.7802,0,U,37951,999,5303,0,-.54E-6,0
NIGCOMSAT 1R,2011-077A,2026-06-15T23:48:49.681152,1.00268918,.00026885,0.0438,121.7464,226.5511,315.6720,0,U,38014,999,5294,0,.146E-5,0
WGS F4 (USA 233),2012-003A,2026-06-15T20:19:28.553664,1.00268688,.00008095,0.0231,17.8509,269.1084,10.4443,0,U,38070,999,4413,0,0,0
SES-4,2012-007A,2026-06-15T04:24:06.471072,1.00270340,.00026425,0.0226,29.0397,70.8671,207.5944,0,U,38087,999,5220,0,-.164E-5,0
BEIDOU-2 G5,2012-008A,2026-06-15T16:45:44.815104,1.00271399,.000913,3.5693,69.7032,272.8023,231.5622,0,U,38091,999,5235,0,.57E-6,0
MUOS-1,2012-009A,2026-06-15T16:00:26.913888,1.00270192,.00586474,5.4730,47.1561,1.7264,355.1786,0,U,38093,999,5242,0,-.129E-5,0
INTELSAT 22 (IS-22),2012-011A,2026-06-15T19:26:00.756672,1.00272445,.00016191,0.0193,61.9079,38.9402,166.8261,0,U,38098,999,717,0,-.57E-6,0
APSTAR-7,2012-013A,2026-06-16T00:31:37.934976,1.00271646,.00025483,0.0167,22.2487,71.4454,255.0058,0,U,38107,999,5179,0,-.101E-5,0
YAHSAT 1B,2012-016A,2026-06-15T11:34:34.540608,1.00270415,.00023592,0.0913,90.2233,12.4405,22.3367,0,U,38245,999,4559,0,.129E-5,0
AEHF-2 (USA 235),2012-019A,2026-06-15T01:00:00.254304,1.00269927,.0002368,6.6459,57.5044,17.9364,186.3377,0,U,38254,999,696,0,-.136E-5,0
JCSAT-13,2012-023A,2026-06-15T20:29:35.084256,1.00271216,.00028776,0.0147,18.4107,92.6036,224.5105,0,U,38331,999,5152,0,-.355E-5,0
VINASAT-2,2012-023B,2026-06-15T20:31:49.869120,1.00271045,.00020841,0.0180,18.2560,75.9187,249.7703,0,U,38332,999,4664,0,-.328E-5,0
NIMIQ 6,2012-026A,2026-06-15T10:55:00.334272,1.00270368,.00024359,0.0192,303.2482,140.4929,252.6453,0,U,38342,999,5039,0,-.171E-5,0
ZHONGXING-2A,2012-028A,2026-06-15T22:04:58.433664,1.00270638,.00037545,1.4502,83.8892,45.9373,203.8601,0,U,38352,999,5128,0,-.293E-5,0
INTELSAT 19 (IS-19),2012-030A,2026-06-15T18:58:56.396928,1.00270894,.00028118,0.0163,356.0892,97.0106,261.6997,0,U,38356,999,5043,0,-.55E-6,0
ECHOSTAR 17,2012-035A,2026-06-15T10:50:23.276256,1.00271238,.00021463,0.0247,12.0514,73.4158,233.7706,0,U,38551,999,5104,0,0,0
METEOSAT-10 (MSG-3),2012-035B,2026-06-15T21:37:03.141984,1.00276584,.00014525,4.6688,61.0268,328.0735,199.6782,0,U,38552,999,5084,0,-.6E-7,0
SES-5,2012-036A,2026-06-15T13:05:07.027008,1.00271492,.00017848,0.0490,313.0468,131.8566,20.1824,0,U,38652,999,4444,0,.36E-6,0
INTELSAT 20 (IS-20),2012-043A,2026-06-15T20:13:46.234272,1.00270304,.00017026,0.0027,62.9680,113.8302,99.2761,0,U,38740,999,5073,0,-.23E-6,0
HYLAS 2,2012-043B,2026-06-15T19:33:38.070144,1.00269834,.00024101,2.4240,81.0844,27.1359,16.7125,0,U,38741,999,5076,0,-.258E-5,0
